{
  "type": "FeatureCollection",
  "features": [
    {
      "type": "Feature",
      "properties": {
        "norad_id": 33939,
        "name": "COSMOS 2251 DEB",
        "group": "cosmos-2251-debris",
        "lat": -8.424914255564595,
        "lon": 50.54307208253484,
        "alt_km": 564.7493129757395,
        "timestamp": "2025-12-26T07:29:18.847580+00:00",
        "meta_object_name": "COSMOS 2251 DEB",
        "meta_object_id": "1993-036EU",
        "meta_epoch": "2025-12-25T13:55:45.725376",
        "meta_mean_motion": 15.00770222,
        "meta_eccentricity": 0.0005075,
        "meta_inclination": 74.006,
        "meta_ra_of_asc_node": 54.4687,
        "meta_arg_of_pericenter": 13.1312,
        "meta_mean_anomaly": 347.0006,
        "meta_ephemeris_type": 0,
        "meta_classification_type": "U",
        "meta_norad_cat_id": 33939,
        "meta_element_set_no": 999,
        "meta_rev_at_epoch": 88945,
        "meta_bstar": 0.0030021,
        "meta_mean_motion_dot": 0.00038285,
        "meta_mean_motion_ddot": 0,
        "tle_line1": "1 33939U 93036EU  25359.58039034  .00038285  00000+0  30021-2 0  9997",
        "tle_line2": "2 33939  74.0060  54.4687 0005075  13.1312 347.0006 15.00770222889458"
      },
      "geometry": {
        "type": "Point",
        "coordinates": [
          50.54307208253484,
          -8.424914255564595
        ]
      }
    },
    {
      "type": "Feature",
      "properties": {
        "norad_id": 33940,
        "name": "COSMOS 2251 DEB",
        "group": "cosmos-2251-debris",
        "lat": -68.99347048446052,
        "lon": -14.164106347516299,
        "alt_km": 699.5341593274497,
        "timestamp": "2025-12-26T07:29:18.847591+00:00",
        "meta_object_name": "COSMOS 2251 DEB",
        "meta_object_id": "1993-036EV",
        "meta_epoch": "2025-12-25T19:30:40.226976",
        "meta_mean_motion": 14.58920173,
        "meta_eccentricity": 0.00106547,
        "meta_inclination": 74.0399,
        "meta_ra_of_asc_node": 118.6034,
        "meta_arg_of_pericenter": 199.4639,
        "meta_mean_anomaly": 316.5363,
        "meta_ephemeris_type": 0,
        "meta_classification_type": "U",
        "meta_norad_cat_id": 33940,
        "meta_element_set_no": 999,
        "meta_rev_at_epoch": 88784,
        "meta_bstar": 0.001201335,
        "meta_mean_motion_dot": 5.611e-05,
        "meta_mean_motion_ddot": 0,
        "tle_line1": "1 33940U 93036EV  25359.81296559  .00005611  00000+0  12013-2 0  9990",
        "tle_line2": "2 33940  74.0399 118.6034 0010654 199.4639 316.5363 14.58920173887845"
      },
      "geometry": {
        "type": "Point",
        "coordinates": [
          -14.164106347516299,
          -68.99347048446052
        ]
      }
    },
    {
      "type": "Feature",
      "properties": {
        "norad_id": 33942,
        "name": "COSMOS 2251 DEB",
        "group": "cosmos-2251-debris",
        "lat": 23.840220975889277,
        "lon": 62.56694402859551,
        "alt_km": 779.0212579086246,
        "timestamp": "2025-12-26T07:29:18.847601+00:00",
        "meta_object_name": "COSMOS 2251 DEB",
        "meta_object_id": "1993-036EX",
        "meta_epoch": "2025-12-25T21:08:14.279712",
        "meta_mean_motion": 14.38005775,
        "meta_eccentricity": 0.00208343,
        "meta_inclination": 74.036,
        "meta_ra_of_asc_node": 250.6279,
        "meta_arg_of_pericenter": 331.5416,
        "meta_mean_anomaly": 111.6369,
        "meta_ephemeris_type": 0,
        "meta_classification_type": "U",
        "meta_norad_cat_id": 33942,
        "meta_element_set_no": 999,
        "meta_rev_at_epoch": 88323,
        "meta_bstar": 0.00019268459,
        "meta_mean_motion_dot": 5.58e-06,
        "meta_mean_motion_ddot": 0,
        "tle_line1": "1 33942U 93036EX  25359.88072083  .00000558  00000+0  19268-3 0  9998",
        "tle_line2": "2 33942  74.0360 250.6279 0020834 331.5416 111.6369 14.38005775883235"
      },
      "geometry": {
        "type": "Point",
        "coordinates": [
          62.56694402859551,
          23.840220975889277
        ]
      }
    },
    {
      "type": "Feature",
      "properties": {
        "norad_id": 33944,
        "name": "COSMOS 2251 DEB",
        "group": "cosmos-2251-debris",
        "lat": -2.2293015721312606,
        "lon": -76.68211665002761,
        "alt_km": 695.4035485518543,
        "timestamp": "2025-12-26T07:29:18.847611+00:00",
        "meta_object_name": "COSMOS 2251 DEB",
        "meta_object_id": "1993-036EZ",
        "meta_epoch": "2025-12-25T23:31:48.454752",
        "meta_mean_motion": 14.37372911,
        "meta_eccentricity": 0.01127745,
        "meta_inclination": 74.0407,
        "meta_ra_of_asc_node": 284.566,
        "meta_arg_of_pericenter": 20.8089,
        "meta_mean_anomaly": 62.2789,
        "meta_ephemeris_type": 0,
        "meta_classification_type": "U",
        "meta_norad_cat_id": 33944,
        "meta_element_set_no": 999,
        "meta_rev_at_epoch": 88218,
        "meta_bstar": 0.00036319459,
        "meta_mean_motion_dot": 1.14e-05,
        "meta_mean_motion_ddot": 0,
        "tle_line1": "1 33944U 93036EZ  25359.98042193  .00001140  00000+0  36319-3 0  9994",
        "tle_line2": "2 33944  74.0407 284.5660 0112774  20.8089  62.2789 14.37372911882186"
      },
      "geometry": {
        "type": "Point",
        "coordinates": [
          -76.68211665002761,
          -2.2293015721312606
        ]
      }
    },
    {
      "type": "Feature",
      "properties": {
        "norad_id": 33945,
        "name": "COSMOS 2251 DEB",
        "group": "cosmos-2251-debris",
        "lat": 16.08040575152825,
        "lon": -73.86655867913332,
        "alt_km": 760.9649433299346,
        "timestamp": "2025-12-26T07:29:18.847621+00:00",
        "meta_object_name": "COSMOS 2251 DEB",
        "meta_object_id": "1993-036FA",
        "meta_epoch": "2025-12-25T21:22:10.305120",
        "meta_mean_motion": 14.34610949,
        "meta_eccentricity": 0.00224779,
        "meta_inclination": 74.0303,
        "meta_ra_of_asc_node": 282.1707,
        "meta_arg_of_pericenter": 5.0726,
        "meta_mean_anomaly": 355.0649,
        "meta_ephemeris_type": 0,
        "meta_classification_type": "U",
        "meta_norad_cat_id": 33945,
        "meta_element_set_no": 999,
        "meta_rev_at_epoch": 88204,
        "meta_bstar": 0.00013525851,
        "meta_mean_motion_dot": 3.57e-06,
        "meta_mean_motion_ddot": 0,
        "tle_line1": "1 33945U 93036FA  25359.89039705  .00000357  00000+0  13526-3 0  9994",
        "tle_line2": "2 33945  74.0303 282.1707 0022477   5.0726 355.0649 14.34610949882047"
      },
      "geometry": {
        "type": "Point",
        "coordinates": [
          -73.86655867913332,
          16.08040575152825
        ]
      }
    },
    {
      "type": "Feature",
      "properties": {
        "norad_id": 33948,
        "name": "COSMOS 2251 DEB",
        "group": "cosmos-2251-debris",
        "lat": -73.03501526354857,
        "lon": -149.54102559837042,
        "alt_km": 776.1205541112622,
        "timestamp": "2025-12-26T07:29:18.847631+00:00",
        "meta_object_name": "COSMOS 2251 DEB",
        "meta_object_id": "1993-036FD",
        "meta_epoch": "2025-12-25T20:10:19.693344",
        "meta_mean_motion": 14.35644343,
        "meta_eccentricity": 0.00233076,
        "meta_inclination": 74.036,
        "meta_ra_of_asc_node": 281.0973,
        "meta_arg_of_pericenter": 353.8764,
        "meta_mean_anomaly": 6.21,
        "meta_ephemeris_type": 0,
        "meta_classification_type": "U",
        "meta_norad_cat_id": 33948,
        "meta_element_set_no": 999,
        "meta_rev_at_epoch": 88211,
        "meta_bstar": 0.00020172886,
        "meta_mean_motion_dot": 5.57e-06,
        "meta_mean_motion_ddot": 0,
        "tle_line1": "1 33948U 93036FD  25359.84050571  .00000557  00000+0  20173-3 0  9994",
        "tle_line2": "2 33948  74.0360 281.0973 0023307 353.8764   6.2100 14.35644343882116"
      },
      "geometry": {
        "type": "Point",
        "coordinates": [
          -149.54102559837042,
          -73.03501526354857
        ]
      }
    },
    {
      "type": "Feature",
      "properties": {
        "norad_id": 33971,
        "name": "COSMOS 2251 DEB",
        "group": "cosmos-2251-debris",
        "lat": -3.879806365008777,
        "lon": 49.763293732985446,
        "alt_km": 773.2769222221832,
        "timestamp": "2025-12-26T07:29:18.847656+00:00",
        "meta_object_name": "COSMOS 2251 DEB",
        "meta_object_id": "1993-036FE",
        "meta_epoch": "2025-12-25T17:35:18.990816",
        "meta_mean_motion": 14.39746475,
        "meta_eccentricity": 0.00190214,
        "meta_inclination": 74.0237,
        "meta_ra_of_asc_node": 229.7201,
        "meta_arg_of_pericenter": 328.1416,
        "meta_mean_anomaly": 95.2565,
        "meta_ephemeris_type": 0,
        "meta_classification_type": "U",
        "meta_norad_cat_id": 33971,
        "meta_element_set_no": 999,
        "meta_rev_at_epoch": 88326,
        "meta_bstar": 0.00023931833,
        "meta_mean_motion_dot": 7.25e-06,
        "meta_mean_motion_ddot": 0,
        "tle_line1": "1 33971U 93036FE  25359.73285869  .00000725  00000+0  23932-3 0  9991",
        "tle_line2": "2 33971  74.0237 229.7201 0019021 328.1416  95.2565 14.39746475883268"
      },
      "geometry": {
        "type": "Point",
        "coordinates": [
          49.763293732985446,
          -3.879806365008777
        ]
      }
    }
  ]
}